NORAD_CAT_ID,OBJECT_NAME,OBJECT_TYPE,EPOCH,MEAN_MOTION,ECCENTRICITY,INCLINATION,RA_OF_ASC_NODE,ARG_OF_PERICENTER,MEAN_ANOMALY,BSTAR,MEAN_MOTION_DOT,MEAN_MOTION_DDOT,TLE_LINE0,TLE_LINE1,TLE_LINE2,SEMIMAJOR_AXIS,PERIOD,APOGEE,PERIGEE,DECAYED
52548.0,STARLINK-3931,PAYLOAD,2023-10-03 21:49:08,15.08834015,0.0001339,53.2147,154.5232,99.5816,260.5327,-5.279e-05,-1.128e-05,0.0,0 STARLINK-3931,1 52548U 22051R   23276.90913095 -.00001128  00000-0 -52790-4 0  9991,2 52548  53.2147 154.5232 0001339  99.5816 260.5327 15.08834015 77424,6917.899,95.438,540.69,538.837,0.0
52548.0,STARLINK-3931,PAYLOAD,2023-10-04 08:56:50,15.0884533,0.0001213,53.2154,152.4426,99.2524,260.8605,0.00025468,3.768e-05,0.0,0 STARLINK-3931,1 52548U 22051R   23277.37280808  .00003768  00000-0  25468-3 0  9993,2 52548  53.2154 152.4426 0001213  99.2524 260.8605 15.08845330 77567,6917.864,95.437,540.568,538.89,0.0
52548.0,STARLINK-3931,PAYLOAD,2023-10-04 21:39:55,15.08851138,0.0001157,53.2148,150.0648,98.5143,261.598,0.00043182,6.593e-05,0.0,0 STARLINK-3931,1 52548U 22051R   23277.90272688  .00006593  00000-0  43182-3 0  9991,2 52548  53.2148 150.0648 0001157  98.5143 261.5980 15.08851138 77574,6917.846,95.437,540.512,538.911,0.0
52548.0,STARLINK-3931,PAYLOAD,2023-10-05 08:47:37,15.08846091,0.0001121,53.2148,147.9821,91.9637,268.1484,0.0001214,1.645e-05,0.0,0 STARLINK-3931,1 52548U 22051R   23278.36640547  .00001645  00000-0  12140-3 0  9998,2 52548  53.2148 147.9821 0001121  91.9637 268.1484 15.08846091 77718,6917.862,95.437,540.502,538.951,0.0
52548.0,STARLINK-3931,PAYLOAD,2023-10-05 21:30:42,15.08843777,0.0001393,53.2148,145.6033,93.6056,266.5096,7.9958e-05,9.85e-06,0.0,0 STARLINK-3931,1 52548U 22051R   23278.89632762  .00000985  00000-0  79958-4 0  9993,2 52548  53.2148 145.6033 0001393  93.6056 266.5096 15.08843777 77723,6917.869,95.437,540.698,538.77,0.0
52548.0,STARLINK-3931,PAYLOAD,2023-10-06 00:41:28,15.08846721,0.0001434,53.2153,145.0072,96.6366,263.479,0.00015183,2.13e-05,0.0,0 STARLINK-3931,1 52548U 22051R   23279.02880632  .00002130  00000-0  15183-3 0  9993,2 52548  53.2153 145.0072 0001434  96.6366 263.4790 15.08846721 77740,6917.86,95.437,540.717,538.733,0.0
52548.0,STARLINK-3931,PAYLOAD,2023-10-06 21:21:30,15.08837393,0.0001304,53.2156,141.142,91.296,268.8182,8.5922e-05,1.08e-05,0.0,0 STARLINK-3931,1 52548U 22051R   23279.88993517  .00001080  00000-0  85922-4 0  9996,2 52548  53.2156 141.1420 0001304  91.2960 268.8182 15.08837393 77945,6917.888,95.438,540.655,538.851,0.0
52548.0,STARLINK-3931,PAYLOAD,2023-10-07 00:32:16,15.08838971,0.0001384,53.2157,140.5467,89.5891,270.5259,0.00011895,1.606e-05,0.0,0 STARLINK-3931,1 52548U 22051R   23280.02241536  .00001606  00000-0  11895-3 0  9992,2 52548  53.2157 140.5467 0001384  89.5891 270.5259 15.08838971 77893,6917.884,95.438,540.706,538.791,0.0
52548.0,STARLINK-3931,PAYLOAD,2023-10-07 21:12:17,15.08851926,0.0001556,53.2162,136.6814,85.5025,274.6145,0.00065401,0.00010139,0.0,0 STARLINK-3931,1 52548U 22051R   23280.88353580  .00010139  00000-0  65401-3 0  9992,2 52548  53.2162 136.6814 0001556  85.5025 274.6145 15.08851926 78027,6917.844,95.437,540.785,538.633,0.0
52548.0,STARLINK-3931,PAYLOAD,2023-10-08 00:23:03,15.08857073,0.0001489,53.2159,136.0865,83.2738,276.8424,0.00074524,0.00011598,0.0,0 STARLINK-3931,1 52548U 22051R   23281.01601403  .00011598  00000-0  74524-3 0  9994,2 52548  53.2159 136.0865 0001489  83.2738 276.8424 15.08857073 78117,6917.828,95.436,540.723,538.663,0.0
52548.0,STARLINK-3931,PAYLOAD,2023-10-08 19:27:41,15.08847021,0.000145,53.2155,132.5198,89.3312,270.7847,0.00016218,2.295e-05,0.0,0 STARLINK-3931,1 52548U 22051R   23281.81089307  .00002295  00000-0  16218-3 0  9995,2 52548  53.2155 132.5198 0001450  89.3312 270.7847 15.08847021 78233,6917.859,95.437,540.727,538.721,0.0
52548.0,STARLINK-3931,PAYLOAD,2023-10-08 21:03:04,15.08850775,0.0001364,53.2157,132.2221,86.4898,273.625,0.00027272,4.056e-05,0.0,0 STARLINK-3931,1 52548U 22051R   23281.87713189  .00004056  00000-0  27272-3 0  9992,2 52548  53.2157 132.2221 0001364  86.4898 273.6250 15.08850775 78173,6917.847,95.437,540.656,538.769,0.0
52548.0,STARLINK-3931,PAYLOAD,2023-10-09 06:35:22,15.08848984,0.0001388,53.2161,130.4369,82.8951,277.2199,0.00018162,2.604e-05,0.0,0 STARLINK-3931,1 52548U 22051R   23282.27457012  .00002604  00000-0  18162-3 0  9992,2 52548  53.2161 130.4369 0001388  82.8951 277.2199 15.08848984 78235,6917.853,95.437,540.678,538.758,0.0
52548.0,STARLINK-3931,PAYLOAD,2023-10-09 19:18:28,15.08830208,0.0001514,53.2171,128.0579,91.62,268.4965,-9.989e-05,-1.877e-05,0.0,0 STARLINK-3931,1 52548U 22051R   23282.80449628 -.00001877  00000-0 -99890-4 0  9996,2 52548  53.2171 128.0579 0001514  91.6200 268.4965 15.08830208 78387,6917.91,95.438,540.823,538.728,0.0
52548.0,STARLINK-3931,PAYLOAD,2023-10-10 06:26:10,15.08841785,0.0001513,53.2169,125.9773,105.6168,254.4991,2.7913e-06,-2.44e-06,0.0,0 STARLINK-3931,1 52548U 22051R   23283.26817522 -.00000244  00000-0  27913-5 0  9993,2 52548  53.2169 125.9773 0001513 105.6168 254.4991 15.08841785 78458,6917.875,95.437,540.787,538.693,0.0
52548.0,STARLINK-3931,PAYLOAD,2023-10-10 14:23:05,15.08845793,0.0001337,53.2161,124.4896,87.4316,272.6829,0.00012234,1.66e-05,0.0,0 STARLINK-3931,1 52548U 22051R   23283.59937392  .00001660  00000-0  12234-3 0  9997,2 52548  53.2161 124.4896 0001337  87.4316 272.6829 15.08845793 78439,6917.863,95.437,540.653,538.803,0.0
52548.0,STARLINK-3931,PAYLOAD,2023-10-10 19:09:15,15.08851166,0.0001333,53.2162,123.5976,89.7178,270.3967,0.00029639,4.434e-05,0.0,0 STARLINK-3931,1 52548U 22051R   23283.79809187  .00004434  00000-0  29639-3 0  9998,2 52548  53.2162 123.5976 0001333  89.7178 270.3967 15.08851166 78468,6917.846,95.437,540.633,538.789,0.0
52548.0,STARLINK-3931,PAYLOAD,2023-10-10 23:55:24,15.08854537,0.0001337,53.2162,122.7054,89.7307,270.3838,0.00045704,6.996e-05,0.0,0 STARLINK-3931,1 52548U 22051R   23283.99681086  .00006996  00000-0  45704-3 0  9992,2 52548  53.2162 122.7054 0001337  89.7307 270.3838 15.08854537 78567,6917.836,95.437,540.626,538.776,0.0
52548.0,STARLINK-3931,PAYLOAD,2023-10-11 12:38:30,15.08834572,0.0001642,53.2163,120.3291,91.9449,268.1731,-1.5209e-05,-5.3e-06,0.0,0 STARLINK-3931,1 52548U 22051R   23284.52673881 -.00000530  00000-0 -15209-4 0  9994,2 52548  53.2163 120.3291 0001642  91.9449 268.1731 15.08834572 78649,6917.897,95.438,540.898,538.626,0.0
52548.0,STARLINK-3931,PAYLOAD,2023-10-12 14:04:40,15.08834367,0.0001702,53.2164,115.5705,88.4744,271.6443,0.00015439,2.17e-05,0.0,0 STARLINK-3931,1 52548U 22051R   23285.58658261  .00002170  00000-0  15439-3 0  9990,2 52548  53.2164 115.5705 0001702  88.4744 271.6443 15.08834367 78733,6917.898,95.438,540.94,538.585,0.0
52548.0,STARLINK-3931,PAYLOAD,2023-10-12 18:50:50,15.08835264,0.0001348,53.2143,114.6775,90.6109,269.5038,0.00011984,1.62e-05,0.0,0 STARLINK-3931,1 52548U 22051R   23285.78530282  .00001620  00000-0  11984-3 0  9994,2 52548  53.2143 114.6775 0001348  90.6109 269.5038 15.08835264 78837,6917.895,95.438,540.692,538.827,0.0
52548.0,STARLINK-3931,PAYLOAD,2023-10-12 20:26:13,15.08835121,0.000132,53.2146,114.3802,90.3357,269.7786,0.0001261,1.719e-05,0.0,0 STARLINK-3931,1 52548U 22051R   23285.85154325  .00001719  00000-0  12610-3 0  9998,2 52548  53.2146 114.3802 0001320  90.3357 269.7786 15.08835121 78777,6917.895,95.438,540.673,538.847,0.0
52548.0,STARLINK-3931,PAYLOAD,2023-10-13 12:20:04,15.08844506,0.0001348,53.2144,111.4061,90.7045,269.4101,0.00041271,6.287e-05,0.0,0 STARLINK-3931,1 52548U 22051R   23286.51394390  .00006287  00000-0  41271-3 0  9990,2 52548  53.2144 111.4061 0001348  90.7045 269.4101 15.08844506 78874,6917.867,95.437,540.664,538.799,0.0
52548.0,STARLINK-3931,PAYLOAD,2023-10-13 18:41:37,15.08848538,0.0001347,53.2143,110.2165,89.492,270.6227,0.00045367,6.941e-05,0.0,0 STARLINK-3931,1 52548U 22051R   23286.77890274  .00006941  00000-0  45367-3 0  9997,2 52548  53.2143 110.2165 0001347  89.4920 270.6227 15.08848538 78918,6917.854,95.437,540.651,538.787,0.0
52548.0,STARLINK-3931,PAYLOAD,2023-10-14 18:32:23,15.0885196,0.0001297,53.2148,105.7558,85.8754,274.2386,0.00035142,5.311e-05,0.0,0 STARLINK-3931,1 52548U 22051R   23287.77249945  .00005311  00000-0  35142-3 0  9991,2 52548  53.2148 105.7558 0001297  85.8754 274.2386 15.08851960 79131,6917.844,95.437,540.606,538.812,0.0
52548.0,STARLINK-3931,PAYLOAD,2023-10-14 21:43:10,15.08854811,0.0001295,53.2148,105.1608,86.3548,273.7592,0.00038206,5.8e-05,0.0,0 STARLINK-3931,1 52548U 22051R   23287.90497766  .00005800  00000-0  38206-3 0  9999,2 52548  53.2148 105.1608 0001295  86.3548 273.7592 15.08854811 79081,6917.835,95.437,540.596,538.804,0.0
52548.0,STARLINK-3931,PAYLOAD,2023-10-15 12:01:38,15.08842715,0.000134,53.2154,102.4818,96.5477,263.5668,3.7583e-05,3.1e-06,0.0,0 STARLINK-3931,1 52548U 22051R   23288.50113891  .00000310  00000-0  37583-4 0  9999,2 52548  53.2154 102.4818 0001340  96.5477 263.5668 15.08842715 79245,6917.872,95.437,540.664,538.81,0.0
52548.0,STARLINK-3931,PAYLOAD,2023-10-15 18:23:12,15.08815034,0.000146,53.2161,101.2933,93.3954,266.7205,0.0010529,0.00016497,0.0,0 STARLINK-3931,1 52548U 22051R   23288.76611604  .00016497  00000-0  10529-2 0  9994,2 52548  53.2161 101.2933 0001460  93.3954 266.7205 15.08815034 79286,6917.957,95.439,540.832,538.812,0.0
52548.0,STARLINK-3931,PAYLOAD,2023-10-16 11:52:25,15.08843406,0.0001312,53.2163,98.0231,92.4679,267.6463,-8.9627e-05,-1.714e-05,0.0,0 STARLINK-3931,1 52548U 22051R   23289.49473813 -.00001714  00000-0 -89627-4 0  9998,2 52548  53.2163  98.0231 0001312  92.4679 267.6463 15.08843406 79394,6917.87,95.437,540.643,538.827,0.0
52548.0,STARLINK-3931,PAYLOAD,2023-10-16 15:03:11,15.08840478,0.0001332,53.2167,97.4284,98.2396,261.8747,2.6053e-05,1.27e-06,0.0,0 STARLINK-3931,1 52548U 22051R   23289.62722131  .00000127  00000-0  26053-4 0  9992,2 52548  53.2167  97.4284 0001332  98.2396 261.8747 15.08840478 79343,6917.879,95.438,540.665,538.822,0.0
